CCSDS_OMM_VERS = 2.0
CREATION_DATE  = 
ORIGINATOR     = 

OBJECT_NAME    = CZ-2C R/B
OBJECT_ID      = 2022-132E
CENTER_NAME    = EARTH
REF_FRAME      = TEME
TIME_SYSTEM    = UTC
MEAN_ELEMENT_THEORY = SGP/SGP4

EPOCH          = 2026-02-13T00:10:23.000160
MEAN_MOTION    = 15.59681247
ECCENTRICITY   = .001891
INCLINATION    = 97.2962
RA_OF_ASC_NODE = 46.6203
ARG_OF_PERICENTER = 173.3529
MEAN_ANOMALY   = 186.7983

EPHEMERIS_TYPE = 0
CLASSIFICATION_TYPE = U
NORAD_CAT_ID   = 54039
ELEMENT_SET_NO = 999
REV_AT_EPOCH   = 18652
BSTAR          = .42694E-3
MEAN_MOTION_DOT = .34337E-3
MEAN_MOTION_DDOT = 0

CCSDS_OMM_VERS = 2.0
CREATION_DATE  = 
ORIGINATOR     = 

OBJECT_NAME    = GSLV R/B
OBJECT_ID      = 2022-138AN
CENTER_NAME    = EARTH
REF_FRAME      = TEME
TIME_SYSTEM    = UTC
MEAN_ELEMENT_THEORY = SGP/SGP4

EPOCH          = 2026-02-12T23:34:54.678720
MEAN_MOTION    = 14.96584938
ECCENTRICITY   = .0019641
INCLINATION    = 87.3866
RA_OF_ASC_NODE = 174.6290
ARG_OF_PERICENTER = 237.9576
MEAN_ANOMALY   = 121.9748

EPHEMERIS_TYPE = 0
CLASSIFICATION_TYPE = U
NORAD_CAT_ID   = 54149
ELEMENT_SET_NO = 999
REV_AT_EPOCH   = 18023
BSTAR          = .30347E-3
MEAN_MOTION_DOT = .3494E-4
MEAN_MOTION_DDOT = 0

CCSDS_OMM_VERS = 2.0
CREATION_DATE  = 
ORIGINATOR     = 

OBJECT_NAME    = XRISM
OBJECT_ID      = 2023-137A
CENTER_NAME    = EARTH
REF_FRAME      = TEME
TIME_SYSTEM    = UTC
MEAN_ELEMENT_THEORY = SGP/SGP4

EPOCH          = 2026-02-13T03:19:02.752320
MEAN_MOTION    = 15.11194734
ECCENTRICITY   = .0008134
INCLINATION    = 31.0024
RA_OF_ASC_NODE = 82.4199
ARG_OF_PERICENTER = 154.3720
MEAN_ANOMALY   = 205.7323

EPHEMERIS_TYPE = 0
CLASSIFICATION_TYPE = U
NORAD_CAT_ID   = 57800
ELEMENT_SET_NO = 999
REV_AT_EPOCH   = 13407
BSTAR          = .35536E-3
MEAN_MOTION_DOT = .6216E-4
MEAN_MOTION_DDOT = 0

CCSDS_OMM_VERS = 2.0
CREATION_DATE  = 
ORIGINATOR     = 

OBJECT_NAME    = ACS3
OBJECT_ID      = 2024-077B
CENTER_NAME    = EARTH
REF_FRAME      = TEME
TIME_SYSTEM    = UTC
MEAN_ELEMENT_THEORY = SGP/SGP4

EPOCH          = 2026-02-12T20:42:00.175392
MEAN_MOTION    = 13.88564061
ECCENTRICITY   = .0046514
INCLINATION    = 97.2194
RA_OF_ASC_NODE = 350.5562
ARG_OF_PERICENTER = 151.3837
MEAN_ANOMALY   = 208.9894

EPHEMERIS_TYPE = 0
CLASSIFICATION_TYPE = U
NORAD_CAT_ID   = 59588
ELEMENT_SET_NO = 999
REV_AT_EPOCH   = 9075
BSTAR          = .14772E-1
MEAN_MOTION_DOT = .17926E-3
MEAN_MOTION_DDOT = 0

CCSDS_OMM_VERS = 2.0
CREATION_DATE  = 
ORIGINATOR     = 

OBJECT_NAME    = SZ-21 MODULE
OBJECT_ID      = 2025-246C
CENTER_NAME    = EARTH
REF_FRAME      = TEME
TIME_SYSTEM    = UTC
MEAN_ELEMENT_THEORY = SGP/SGP4

EPOCH          = 2026-02-12T21:47:34.845216
MEAN_MOTION    = 15.66652368
ECCENTRICITY   = .0002435
INCLINATION    = 41.4765
RA_OF_ASC_NODE = 355.6852
ARG_OF_PERICENTER = 293.5037
MEAN_ANOMALY   = 66.5548

EPHEMERIS_TYPE = 0
CLASSIFICATION_TYPE = U
NORAD_CAT_ID   = 66515
ELEMENT_SET_NO = 999
REV_AT_EPOCH   = 1418
BSTAR          = .30753E-3
MEAN_MOTION_DOT = .33011E-3
MEAN_MOTION_DDOT = 0

