CZ-2C R/B               
1 54039U 22132E   26044.00721065  .00034337  00000+0  42694-3 0  9995
2 54039  97.2962  46.6203 0018910 173.3529 186.7983 15.59681247186520
GSLV R/B                
1 54149U 22138AN  26043.98257730  .00003494  00000+0  30347-3 0  9994
2 54149  87.3866 174.6290 0019641 237.9576 121.9748 14.96584938180235
XRISM                   
1 57800U 23137A   26044.13822630  .00006216  00000+0  35536-3 0  9996
2 57800  31.0024  82.4199 0008134 154.3720 205.7323 15.11194734134076
ACS3                    
1 59588U 24077B   26043.86250203  .00017926  00000+0  14772-1 0  9992
2 59588  97.2194 350.5562 0046514 151.3837 208.9894 13.88564061 90756
SZ-21 MODULE            
1 66515U 25246C   26043.90804219  .00033011  00000+0  30753-3 0  9998
2 66515  41.4765 355.6852 0002435 293.5037  66.5548 15.66652368 14185
